ONEWEB-0387             
1 49313U 21090AL  25224.73349193  .00000050  00000+0  89889-4 0  9996
2 49313  87.9288 335.9408 0001965 109.1812 250.9534 13.20772326189109
ONEWEB-0388             
1 49314U 21090AM  25224.68185833  .00000028  00000+0  36764-4 0  9999
2 49314  87.9250   6.3106 0001982  97.5241 262.6117 13.19724341185721
ONEWEB-0389             
1 50469U 21132A   25224.59410934  .00000050  00000+0  94448-4 0  9990
2 50469  87.9034  67.2807 0001877 100.4252 259.7091 13.17651055177444
ONEWEB-0390             
1 50470U 21132B   25224.59579611  .00000063  00000+0  12863-3 0  9994
2 50470  87.9028  67.2869 0001492  86.6576 273.4726 13.17650698177444
ONEWEB-0391             
1 50471U 21132C   25224.59749870  .00000031  00000+0  47423-4 0  9997
2 50471  87.9026  67.3010 0001706 115.8328 244.2980 13.17648719177449
ONEWEB-0392             
1 50472U 21132D   25224.62787130  .00000096  00000+0  21389-3 0  9996
2 50472  87.9027  67.2385 0001812 100.1261 260.0075 13.17648840177486
ONEWEB-0393             
1 50473U 21132E   25224.60099121  .00000019  00000+0  15956-4 0  9990
2 50473  87.9033  67.2634 0001738  92.7315 267.4015 13.17651134177478
ONEWEB-0394             
1 50474U 21132F   25224.73573194  .00000059  00000+0  11574-3 0  9997
2 50474  87.9138  36.7008 0001941  95.9077 264.2277 13.18685005180943
